ONEWEB-0098             
1 45442U 20020U   25310.71363498  .00000124  00000+0  31440-3 0  9996
2 45442  87.8858  65.3635 0001685 100.5330 259.5988 13.11413909273487
ONEWEB-0055             
1 45443U 20020V   25310.62037708  .00000610  00000+0  16843-2 0  9998
2 45443  87.8858  65.3827 0001671 100.6301 259.5015 13.11418997273444
ONEWEB-0093             
1 45444U 20020W   25310.74853007 -.00000278  00000+0 -82031-3 0  9995
2 45444  87.8860  65.3436 0001299 114.7171 245.4093 13.11419827273523
ONEWEB-0029             
1 45445U 20020X   25310.76450410  .00000422  00000+0  11551-2 0  9996
2 45445  87.8859  65.3529 0001575 105.5533 254.5769 13.11418040273507
ONEWEB-0068             
1 45446U 20020Y   25310.74823670 -.00000477  00000+0 -13814-2 0  9993
2 45446  87.8863  65.3448 0001600 107.7315 252.3987 13.11417393273445
ONEWEB-0046             
1 45447U 20020Z   25310.73989391 -.00000496  00000+0 -14368-2 0  9992
2 45447  87.8858  65.3550 0001339 103.3647 256.7631 13.11415940273454
ONEWEB-0063             
1 45448U 20020AA  25310.76874476  .00000541  00000+0  14903-2 0  9997
2 45448  87.8858  65.3470 0001419  94.7683 265.3607 13.11418849273548
ONEWEB-0019             
1 45449U 20020AB  25310.74245113 -.00000454  00000+0 -13174-2 0  9990
2 45449  87.8853  65.3663 0001655 103.0180 257.1133 13.11419424273381
